CCSDS_OMM_VERS = 2.0
CREATION_DATE  = 
ORIGINATOR     = 

OBJECT_NAME    = RSP-03
OBJECT_ID      = 1998-067XL
CENTER_NAME    = EARTH
REF_FRAME      = TEME
TIME_SYSTEM    = UTC
MEAN_ELEMENT_THEORY = SGP/SGP4

EPOCH          = 2026-02-06T17:27:23.491008
MEAN_MOTION    = 15.99425235
ECCENTRICITY   = .00065388
INCLINATION    = 51.6170
RA_OF_ASC_NODE = 206.5302
ARG_OF_PERICENTER = 284.0297
MEAN_ANOMALY   = 75.9985

EPHEMERIS_TYPE = 0
CLASSIFICATION_TYPE = U
NORAD_CAT_ID   = 65732
ELEMENT_SET_NO = 999
REV_AT_EPOCH   = 2201
BSTAR          = .14853316E-2
MEAN_MOTION_DOT = .753541E-2
MEAN_MOTION_DDOT = .26934416E-3

CCSDS_OMM_VERS = 2.0
CREATION_DATE  = 
ORIGINATOR     = 

OBJECT_NAME    = YOTSUBA-KULOVER
OBJECT_ID      = 1998-067XN
CENTER_NAME    = EARTH
REF_FRAME      = TEME
TIME_SYSTEM    = UTC
MEAN_ELEMENT_THEORY = SGP/SGP4

EPOCH          = 2026-02-06T17:46:24.079872
MEAN_MOTION    = 15.70377871
ECCENTRICITY   = .0004077
INCLINATION    = 51.6250
RA_OF_ASC_NODE = 216.4844
ARG_OF_PERICENTER = 240.0353
MEAN_ANOMALY   = 120.0240

EPHEMERIS_TYPE = 0
CLASSIFICATION_TYPE = U
NORAD_CAT_ID   = 65941
ELEMENT_SET_NO = 999
REV_AT_EPOCH   = 1862
BSTAR          = .10771593E-2
MEAN_MOTION_DOT = .136055E-2
MEAN_MOTION_DDOT = 0

CCSDS_OMM_VERS = 2.0
CREATION_DATE  = 
ORIGINATOR     = 

OBJECT_NAME    = BOTAN
OBJECT_ID      = 1998-067XP
CENTER_NAME    = EARTH
REF_FRAME      = TEME
TIME_SYSTEM    = UTC
MEAN_ELEMENT_THEORY = SGP/SGP4

EPOCH          = 2026-02-06T18:11:44.025216
MEAN_MOTION    = 15.83205172
ECCENTRICITY   = .00058785
INCLINATION    = 51.6190
RA_OF_ASC_NODE = 212.8086
ARG_OF_PERICENTER = 265.4607
MEAN_ANOMALY   = 94.5725

EPHEMERIS_TYPE = 0
CLASSIFICATION_TYPE = U
NORAD_CAT_ID   = 65942
ELEMENT_SET_NO = 999
REV_AT_EPOCH   = 1867
BSTAR          = .1551948E-2
MEAN_MOTION_DOT = .356023E-2
MEAN_MOTION_DDOT = 0

CCSDS_OMM_VERS = 2.0
CREATION_DATE  = 
ORIGINATOR     = 

OBJECT_NAME    = E-KAGAKU-1
OBJECT_ID      = 1998-067XQ
CENTER_NAME    = EARTH
REF_FRAME      = TEME
TIME_SYSTEM    = UTC
MEAN_ELEMENT_THEORY = SGP/SGP4

EPOCH          = 2026-02-06T17:47:22.159680
MEAN_MOTION    = 15.70283698
ECCENTRICITY   = .0003395
INCLINATION    = 51.6264
RA_OF_ASC_NODE = 216.4987
ARG_OF_PERICENTER = 256.2680
MEAN_ANOMALY   = 103.7939

EPHEMERIS_TYPE = 0
CLASSIFICATION_TYPE = U
NORAD_CAT_ID   = 65943
ELEMENT_SET_NO = 999
REV_AT_EPOCH   = 1862
BSTAR          = .10946795E-2
MEAN_MOTION_DOT = .137746E-2
MEAN_MOTION_DDOT = 0

CCSDS_OMM_VERS = 2.0
CREATION_DATE  = 
ORIGINATOR     = 

OBJECT_NAME    = HTV-X1
OBJECT_ID      = 2025-241A
CENTER_NAME    = EARTH
REF_FRAME      = TEME
TIME_SYSTEM    = UTC
MEAN_ELEMENT_THEORY = SGP/SGP4

EPOCH          = 2026-02-06T20:34:44.512896
MEAN_MOTION    = 15.48447561
ECCENTRICITY   = .00111123
INCLINATION    = 51.6318
RA_OF_ASC_NODE = 224.7731
ARG_OF_PERICENTER = 72.2083
MEAN_ANOMALY   = 288.0117

EPHEMERIS_TYPE = 0
CLASSIFICATION_TYPE = U
NORAD_CAT_ID   = 66174
ELEMENT_SET_NO = 999
REV_AT_EPOCH   = 51
BSTAR          = .23308318E-3
MEAN_MOTION_DOT = .12189E-3
MEAN_MOTION_DDOT = 0

CCSDS_OMM_VERS = 2.0
CREATION_DATE  = 
ORIGINATOR     = 

OBJECT_NAME    = SHENZHOU-22
OBJECT_ID      = 2025-272A
CENTER_NAME    = EARTH
REF_FRAME      = TEME
TIME_SYSTEM    = UTC
MEAN_ELEMENT_THEORY = SGP/SGP4

EPOCH          = 2026-02-06T11:21:45.182304
MEAN_MOTION    = 15.59287012
ECCENTRICITY   = .00053968
INCLINATION    = 41.4680
RA_OF_ASC_NODE = 37.9008
ARG_OF_PERICENTER = 13.3696
MEAN_ANOMALY   = 346.7284

EPHEMERIS_TYPE = 0
CLASSIFICATION_TYPE = U
NORAD_CAT_ID   = 66645
ELEMENT_SET_NO = 999
REV_AT_EPOCH   = 26764
BSTAR          = .28124092E-3
MEAN_MOTION_DOT = .22506E-3
MEAN_MOTION_DDOT = 0

CCSDS_OMM_VERS = 2.0
CREATION_DATE  = 
ORIGINATOR     = 

OBJECT_NAME    = SOYUZ-MS 28
OBJECT_ID      = 2025-275A
CENTER_NAME    = EARTH
REF_FRAME      = TEME
TIME_SYSTEM    = UTC
MEAN_ELEMENT_THEORY = SGP/SGP4

EPOCH          = 2026-02-06T20:34:44.512032
MEAN_MOTION    = 15.48447561
ECCENTRICITY   = .0011112
INCLINATION    = 51.6318
RA_OF_ASC_NODE = 224.7731
ARG_OF_PERICENTER = 72.2083
MEAN_ANOMALY   = 288.0117

EPHEMERIS_TYPE = 0
CLASSIFICATION_TYPE = U
NORAD_CAT_ID   = 66664
ELEMENT_SET_NO = 999
REV_AT_EPOCH   = 55155
BSTAR          = .23308E-3
MEAN_MOTION_DOT = .12189E-3
MEAN_MOTION_DDOT = 0

CCSDS_OMM_VERS = 2.0
CREATION_DATE  = 
ORIGINATOR     = 

OBJECT_NAME    = DUPLEX
OBJECT_ID      = 1998-067XS
CENTER_NAME    = EARTH
REF_FRAME      = TEME
TIME_SYSTEM    = UTC
MEAN_ELEMENT_THEORY = SGP/SGP4

EPOCH          = 2026-02-06T23:57:11.315232
MEAN_MOTION    = 15.54066213
ECCENTRICITY   = .0001403
INCLINATION    = 51.6286
RA_OF_ASC_NODE = 222.7139
ARG_OF_PERICENTER = 83.2921
MEAN_ANOMALY   = 276.8229

EPHEMERIS_TYPE = 0
CLASSIFICATION_TYPE = U
NORAD_CAT_ID   = 66906
ELEMENT_SET_NO = 999
REV_AT_EPOCH   = 1035
BSTAR          = .63157E-3
MEAN_MOTION_DOT = .41452E-3
MEAN_MOTION_DDOT = 0

CCSDS_OMM_VERS = 2.0
CREATION_DATE  = 
ORIGINATOR     = 

OBJECT_NAME    = 1998-067XT
OBJECT_ID      = 1998-067XT
CENTER_NAME    = EARTH
REF_FRAME      = TEME
TIME_SYSTEM    = UTC
MEAN_ELEMENT_THEORY = SGP/SGP4

EPOCH          = 2026-02-06T19:14:52.660896
MEAN_MOTION    = 15.61194344
ECCENTRICITY   = .00020719
INCLINATION    = 51.6268
RA_OF_ASC_NODE = 222.1534
ARG_OF_PERICENTER = 208.5279
MEAN_ANOMALY   = 151.5601

EPHEMERIS_TYPE = 0
CLASSIFICATION_TYPE = U
NORAD_CAT_ID   = 66907
ELEMENT_SET_NO = 999
REV_AT_EPOCH   = 1034
BSTAR          = .13710085E-2
MEAN_MOTION_DOT = .11956E-2
MEAN_MOTION_DDOT = 0

CCSDS_OMM_VERS = 2.0
CREATION_DATE  = 
ORIGINATOR     = 

OBJECT_NAME    = 1998-067XU
OBJECT_ID      = 1998-067XU
CENTER_NAME    = EARTH
REF_FRAME      = TEME
TIME_SYSTEM    = UTC
MEAN_ELEMENT_THEORY = SGP/SGP4

EPOCH          = 2026-02-06T19:14:05.863200
MEAN_MOTION    = 15.61225323
ECCENTRICITY   = .00019014
INCLINATION    = 51.6265
RA_OF_ASC_NODE = 222.1476
ARG_OF_PERICENTER = 209.5042
MEAN_ANOMALY   = 150.5844

EPHEMERIS_TYPE = 0
CLASSIFICATION_TYPE = U
NORAD_CAT_ID   = 66908
ELEMENT_SET_NO = 999
REV_AT_EPOCH   = 1034
BSTAR          = .13403473E-2
MEAN_MOTION_DOT = .116976E-2
MEAN_MOTION_DDOT = 0

